[{"OBJECT_NAME":"STARLINK-3372","OBJECT_ID":"2022-005K","EPOCH":"2026-03-09T19:41:30.469920","MEAN_MOTION":15.08825229,"ECCENTRICITY":0.00014832,"INCLINATION":53.218,"RA_OF_ASC_NODE":288.5375,"ARG_OF_PERICENTER":95.1079,"MEAN_ANOMALY":265.0082,"EPHEMERIS_TYPE":0,"CLASSIFICATION_TYPE":"U","NORAD_CAT_ID":51113,"ELEMENT_SET_NO":999,"REV_AT_EPOCH":22889,"BSTAR":0.00014903946,"MEAN_MOTION_DOT":2.084e-5,"MEAN_MOTION_DDOT":0},{"OBJECT_NAME":"SL-24 R\/B","OBJECT_ID":"2014-070F","EPOCH":"2026-03-09T19:25:54.271488","MEAN_MOTION":13.15221204,"ECCENTRICITY":0.09488935,"INCLINATION":97.1704,"RA_OF_ASC_NODE":356.0555,"ARG_OF_PERICENTER":79.027,"MEAN_ANOMALY":291.5995,"EPHEMERIS_TYPE":0,"CLASSIFICATION_TYPE":"U","NORAD_CAT_ID":40303,"ELEMENT_SET_NO":999,"REV_AT_EPOCH":54356,"BSTAR":0.00013695568,"MEAN_MOTION_DOT":5.82e-6,"MEAN_MOTION_DDOT":0}]
